BEIDOU-3 G1 (C59)       
1 43683U 18085A   24189.57772672 -.00000285  00000+0  00000+0 0  9997
2 43683   2.2413 108.8172 0003707   2.4336 162.6724  1.00266835 20944
BEIDOU-3 M17 (C36)      
1 43706U 18093A   24188.37935866  .00000054  00000+0  00000+0 0  9998
2 43706  54.2149 206.4196 0010439 280.2492  79.6791  1.86228451 38309
BEIDOU-3 M18 (C37)      
1 43707U 18093B   24188.78149725  .00000049  00000+0  00000+0 0  9999
2 43707  54.2157 206.3977 0008321 304.3995  55.5653  1.86229974 38309
BEIDOU-3 IGSO-1 (C38)   
1 44204U 19023A   24189.39944929 -.00000215  00000+0  00000+0 0  9999
2 44204  57.6722  45.0097 0022374 206.0827 296.0209  1.00295564    92
BEIDOU-2 G8 (C01)       
1 44231U 19027A   24189.79328411 -.00000251  00000+0  00000+0 0  9999
2 44231   1.5262  73.8633 0001571 195.4899  86.9885  1.00274245 18964
BEIDOU-3 IGSO-2 (C39)   
1 44337U 19035A   24189.61776022 -.00000115  00000+0  00000+0 0  9990
2 44337  55.1825 165.0890 0035316 205.3628 255.5100  1.00291282 18587
BEIDOU-3 M24 (C46)      
1 44542U 19061A   24188.31405796  .00000055  00000+0  00000+0 0  9992
2 44542  54.4424 206.7122 0007873 341.5126  18.5060  1.86229160 32551
BEIDOU-3 M23 (C45)      
1 44543U 19061B   24189.63048155  .00000043  00000+0  00000+0 0  9998
2 44543  54.4407 206.6363 0005556 319.8567 115.0988  1.86231832 32575
BEIDOU-3 IGSO-3 (C40)   
1 44709U 19073A   24175.72519622 -.00000189  00000+0  00000+0 0  9994
2 44709  56.0384 288.6583 0039278 182.0502 177.9480  1.00247548 17183
BEIDOU-3 M22 (C44)      
1 44793U 19078A   24186.01203673 -.00000112  00000+0  00000+0 0  9998
2 44793  54.5506 324.7804 0005679  33.5021 326.5187  1.86232212 31365
BEIDOU-3 M21 (C43)      
1 44794U 19078B   24188.82653087 -.00000107  00000+0  00000+0 0  9992
2 44794  54.5219 324.6585 0003430  31.5922 328.4186  1.86232752 31429
BEIDOU-3 M19 (C41)      
1 44864U 19090A   24189.31128295 -.00000048  00000+0  00000+0 0  9991
2 44864  55.9423  86.3780 0017117 285.6336 232.1355  1.86231882 31013
BEIDOU-3 M20 (C42)      
1 44865U 19090B   24187.66798755 -.00000061  00000+0  00000+0 0  9997
2 44865  55.9427  86.4661 0015268 299.7639 285.9817  1.86231734 30962
BEIDOU-3 G2 (C60)       
1 45344U 20017A   24190.13823237 -.00000145  00000+0  00000+0 0  9994
2 45344   2.3410  30.4599 0001694 134.3207 251.6069  1.00272225 16166
BEIDOU-3 G3 (C61)       
1 45807U 20040A   24189.79154255 -.00000357  00000+0  00000+0 0  9996
2 45807   0.8115  44.8791 0004437  15.1903 261.6548  1.00268167 14975
GSAT0223 (PRN E34)      
1 49809U 21116A   24187.75852145 -.00000100  00000+0  00000+0 0  9990
2 49809  57.2980   0.8653 0002144 161.4041  19.0432  1.70475992 16058
GSAT0224 (PRN E10)      
1 49810U 21116B   24188.45986104 -.00000100  00000+0  00000+0 0  9993
2 49810  57.2989   0.8449 0001898 141.8248 221.5579  1.70476081 16094
GALAXY 30 (G-30)        
1 46114U 20056C   24189.73969582  .00000033  00000+0  00000+0 0  9996
2 46114   0.0187  34.7947 0001684  71.0448 321.6337  1.00272516 14296
QZS-1R                  
1 49336U 21096A   24188.63851399 -.00000316  00000+0  00000+0 0  9999
2 49336  35.9831  90.2329 0757361 271.8947 285.7525  1.00252391  9880
COSMOS 2529 (757)       
1 43687U 18086A   24189.19221504  .00000056  00000+0  00000+0 0  9998
2 43687  64.2984 216.6008 0011730 259.1893 100.7441  2.13102118 44155
COSMOS 2534 (758)       
1 44299U 19030A   24188.68023956  .00000061  00000+0  00000+0 0  9998
2 44299  64.3714 216.5733 0013542 278.3097 183.0915  2.13102294 39781
COSMOS 2544 (759)       
1 44850U 19088A   24189.03734602 -.00000022  00000+0  00000+0 0  9999
2 44850  65.1976  97.4995 0012898 258.8401 101.0445  2.13102162 35580
COSMOS 2545 (760)       
1 45358U 20018A   24187.35719257 -.00000088  00000+0  00000+0 0  9992
2 45358  64.7386 337.3232 0008148 235.1092 124.8039  2.13102581 33496
COSMOS 2547 (705K)      
1 46805U 20075A   24189.42143007  .00000054  00000+0  00000+0 0  9999
2 46805  64.6004 216.1958 0008955 241.6300 118.3435  2.13103103 28784
COSMOS 2557 (706K)      
1 52984U 22075A   24188.64800024 -.00000086  00000+0  00000+0 0  9994
2 52984  64.6648 339.4066 0010747 278.3908  81.4784  2.13102225 15579
COSMOS 2559 (707K)      
1 54031U 22130A   24189.06021230 -.00000085  00000+0  00000+0 0  9991
2 54031  64.6365 339.5092 0006116 212.3011 147.6531  2.13101553 13552
GPS BIII-1  (PRN 04)    
1 43873U 18109A   24189.27324795 -.00000022  00000+0  00000+0 0  9990
2 43873  55.3041 120.2343 0029190 194.6145 337.4519  2.00557033 40833
GPS BIII-2  (PRN 18)    
1 44506U 19056A   24188.44926917 -.00000106  00000+0  00000+0 0  9991
2 44506  55.8410 359.3217 0043526 188.4916  11.2317  2.00572143 35817
GPS BIII-3  (PRN 23)    
1 45854U 20041A   24189.50466013 -.00000067  00000+0  00000+0 0  9994
2 45854  56.1398  56.6283 0044029 192.9568 343.6698  2.00573448 29800
GPS BIII-4  (PRN 14)    
1 46826U 20078A   24189.35373362  .00000025  00000+0  00000+0 0  9994
2 46826  54.1731 239.5888 0047424 197.6925 208.2027  2.00560277 27270
GPS BIII-5  (PRN 11)    
1 48859U 21054A   24189.54546660 -.00000106  00000+0  00000+0 0  9992
2 48859  55.3664   0.9204 0015680 218.3334 150.4264  2.00557042 22511
