OBJECT_NAME,OBJECT_ID,EPOCH,MEAN_MOTION,ECCENTRICITY,INCLINATION,RA_OF_ASC_NODE,ARG_OF_PERICENTER,MEAN_ANOMALY,EPHEMERIS_TYPE,CLASSIFICATION_TYPE,NORAD_CAT_ID,ELEMENT_SET_NO,REV_AT_EPOCH,BSTAR,MEAN_MOTION_DOT,MEAN_MOTION_DDOT
BEIDOU-3 G1 (C59),2018-085A,2024-07-07T13:51:55.588608,1.00266835,.0003707,2.2413,108.8172,2.4336,162.6724,0,U,43683,999,2094,0,-.285E-5,0
COSMOS 2529 (757),2018-086A,2024-07-07T04:36:47.379456,2.13102118,.001173,64.2984,216.6008,259.1893,100.7441,0,U,43687,999,4415,0,.56E-6,0
BEIDOU-3 M17 (C36),2018-093A,2024-07-06T09:06:16.588224,1.86228451,.0010439,54.2149,206.4196,280.2492,79.6791,0,U,43706,999,3830,0,.54E-6,0
BEIDOU-3 M18 (C37),2018-093B,2024-07-06T18:45:21.362400,1.86229974,.0008321,54.2157,206.3977,304.3995,55.5653,0,U,43707,999,3830,0,.49E-6,0
GPS BIII-1  (PRN 04),2018-109A,2024-07-07T06:33:28.622880,2.00557033,.002919,55.3041,120.2343,194.6145,337.4519,0,U,43873,999,4083,0,-.22E-6,0
BEIDOU-3 IGSO-1 (C38),2019-023A,2024-07-07T09:35:12.418656,1.00295564,.0022374,57.6722,45.0097,206.0827,296.0209,0,U,44204,999,9,0,-.215E-5,0
BEIDOU-2 G8 (C01),2019-027A,2024-07-07T19:02:19.747104,1.00274245,.0001571,1.5262,73.8633,195.4899,86.9885,0,U,44231,999,1896,0,-.251E-5,0
COSMOS 2534 (758),2019-030A,2024-07-06T16:19:32.697984,2.13102294,.0013542,64.3714,216.5733,278.3097,183.0915,0,U,44299,999,3978,0,.61E-6,0
BEIDOU-3 IGSO-2 (C39),2019-035A,2024-07-07T14:49:34.483008,1.00291282,.0035316,55.1825,165.0890,205.3628,255.5100,0,U,44337,999,1858,0,-.115E-5,0
GPS BIII-2  (PRN 18),2019-056A,2024-07-06T10:46:56.856288,2.00572143,.0043526,55.8410,359.3217,188.4916,11.2317,0,U,44506,999,3581,0,-.106E-5,0
BEIDOU-3 M24 (C46),2019-061A,2024-07-06T07:32:14.607744,1.86229160,.0007873,54.4424,206.7122,341.5126,18.5060,0,U,44542,999,3255,0,.55E-6,0
BEIDOU-3 M23 (C45),2019-061B,2024-07-07T15:07:53.605920,1.86231832,.0005556,54.4407,206.6363,319.8567,115.0988,0,U,44543,999,3257,0,.43E-6,0
BEIDOU-3 IGSO-3 (C40),2019-073A,2024-06-23T17:24:16.953408,1.00247548,.0039278,56.0384,288.6583,182.0502,177.9480,0,U,44709,999,1718,0,-.189E-5,0
BEIDOU-3 M22 (C44),2019-078A,2024-07-04T00:17:19.973472,1.86232212,.0005679,54.5506,324.7804,33.5021,326.5187,0,U,44793,999,3136,0,-.112E-5,0
BEIDOU-3 M21 (C43),2019-078B,2024-07-06T19:50:12.267168,1.86232752,.000343,54.5219,324.6585,31.5922,328.4186,0,U,44794,999,3142,0,-.107E-5,0
COSMOS 2544 (759),2019-088A,2024-07-07T00:53:46.696128,2.13102162,.0012898,65.1976,97.4995,258.8401,101.0445,0,U,44850,999,3558,0,-.22E-6,0
BEIDOU-3 M19 (C41),2019-090A,2024-07-07T07:28:14.846880,1.86231882,.0017117,55.9423,86.3780,285.6336,232.1355,0,U,44864,999,3101,0,-.48E-6,0
BEIDOU-3 M20 (C42),2019-090B,2024-07-05T16:01:54.124320,1.86231734,.0015268,55.9427,86.4661,299.7639,285.9817,0,U,44865,999,3096,0,-.61E-6,0
BEIDOU-3 G2 (C60),2020-017A,2024-07-08T03:19:03.276768,1.00272225,.0001694,2.3410,30.4599,134.3207,251.6069,0,U,45344,999,1616,0,-.145E-5,0
COSMOS 2545 (760),2020-018A,2024-07-05T08:34:21.438048,2.13102581,.0008148,64.7386,337.3232,235.1092,124.8039,0,U,45358,999,3349,0,-.88E-6,0
BEIDOU-3 G3 (C61),2020-040A,2024-07-07T18:59:49.276320,1.00268167,.0004437,0.8115,44.8791,15.1903,261.6548,0,U,45807,999,1497,0,-.357E-5,0
GPS BIII-3  (PRN 23),2020-041A,2024-07-07T12:06:42.635232,2.00573448,.0044029,56.1398,56.6283,192.9568,343.6698,0,U,45854,999,2980,0,-.67E-6,0
GALAXY 30 (WAAS/PRN 135),2020-056C,2024-07-07T17:45:09.718848,1.00272516,.0001684,0.0187,34.7947,71.0448,321.6337,0,U,46114,999,1429,0,.33E-6,0
COSMOS 2547 (705K),2020-075A,2024-07-07T10:06:51.558048,2.13103103,.0008955,64.6004,216.1958,241.6300,118.3435,0,U,46805,999,2878,0,.54E-6,0
GPS BIII-4  (PRN 14),2020-078A,2024-07-07T08:29:22.584768,2.00560277,.0047424,54.1731,239.5888,197.6925,208.2027,0,U,46826,999,2727,0,.25E-6,0
GPS BIII-5  (PRN 11),2021-054A,2024-07-07T13:05:28.314240,2.00557042,.001568,55.3664,0.9204,218.3334,150.4264,0,U,48859,999,2251,0,-.106E-5,0
QZS-1R (QZSS/PRN 196),2021-096A,2024-07-06T15:19:27.608736,1.00252391,.0757361,35.9831,90.2329,271.8947,285.7525,0,U,49336,999,988,0,-.316E-5,0
GSAT0223 (PRN E34),2021-116A,2024-07-05T18:12:16.253280,1.70475992,.0002144,57.2980,0.8653,161.4041,19.0432,0,U,49809,999,1605,0,-.1E-5,0
GSAT0224 (PRN E10),2021-116B,2024-07-06T11:02:11.993856,1.70476081,.0001898,57.2989,0.8449,141.8248,221.5579,0,U,49810,999,1609,0,-.1E-5,0
COSMOS 2557 (706K),2022-075A,2024-07-06T15:33:07.220736,2.13102225,.0010747,64.6648,339.4066,278.3908,81.4784,0,U,52984,999,1557,0,-.86E-6,0
COSMOS 2559 (707K),2022-130A,2024-07-07T01:26:42.342720,2.13101553,.0006116,64.6365,339.5092,212.3011,147.6531,0,U,54031,999,1355,0,-.85E-6,0
